{
  "type": "FeatureCollection",
  "features": [
    {
      "type": "Feature",
      "geometry": {
        "type": "LineString",
        "coordinates": [
          [
            11.73,
            -70.77
          ],
          [
            12.0,
            -70.94117647058823
          ],
          [
            12.352941176470589,
            -71.05882352941177
          ],
          [
            12.705882352941176,
            -71.1764705882353
          ],
          [
            13.058823529411766,
            -71.29411764705883
          ],
          [
            13.411764705882353,
            -71.41176470588235
          ],
          [
            13.764705882352942,
            -71.52941176470588
          ],
          [
            14.117647058823529,
            -71.64705882352942
          ],
          [
            14.47058823529412,
            -71.76470588235294
          ],
          [
            14.823529411764707,
            -71.88235294117646
          ],
          [
            15.176470588235295,
            -72.0
          ],
          [
            15.529411764705882,
            -72.11764705882354
          ],
          [
            15.882352941176471,
            -72.11764705882354
          ],
          [
            16.235294117647058,
            -72.11764705882354
          ],
          [
            16.58823529411765,
            -72.11764705882354
          ],
          [
            16.941176470588236,
            -72.11764705882354
          ],
          [
            17.294117647058826,
            -72.11764705882354
          ],
          [
            17.647058823529413,
            -72.11764705882354
          ],
          [
            18.0,
            -72.11764705882354
          ],
          [
            18.352941176470587,
            -72.11764705882354
          ],
          [
            18.705882352941178,
            -72.11764705882354
          ],
          [
            19.058823529411764,
            -72.11764705882354
          ],
          [
            19.411764705882355,
            -72.11764705882354
          ],
          [
            19.764705882352942,
            -72.11764705882354
          ],
          [
            20.11764705882353,
            -72.11764705882354
          ],
          [
            20.470588235294116,
            -72.11764705882354
          ],
          [
            20.823529411764707,
            -72.11764705882354
          ],
          [
            21.176470588235293,
            -72.11764705882354
          ],
          [
            21.529411764705884,
            -72.11764705882354
          ],
          [
            21.88235294117647,
            -72.11764705882354
          ],
          [
            22.235294117647058,
            -72.11764705882354
          ],
          [
            22.588235294117645,
            -72.11764705882354
          ],
          [
            22.941176470588232,
            -72.11764705882354
          ],
          [
            23.294117647058826,
            -72.11764705882354
          ],
          [
            23.647058823529413,
            -72.11764705882354
          ],
          [
            24.0,
            -72.11764705882354
          ],
          [
            24.352941176470587,
            -72.11764705882354
          ],
          [
            24.705882352941178,
            -72.11764705882354
          ],
          [
            25.058823529411764,
            -72.11764705882354
          ],
          [
            25.41176470588235,
            -72.11764705882354
          ],
          [
            25.76470588235294,
            -72.11764705882354
          ],
          [
            26.117647058823533,
            -72.11764705882354
          ],
          [
            26.47058823529412,
            -72.11764705882354
          ],
          [
            26.823529411764707,
            -72.11764705882354
          ],
          [
            27.176470588235293,
            -72.11764705882354
          ],
          [
            27.529411764705884,
            -72.11764705882354
          ],
          [
            27.88235294117647,
            -72.11764705882354
          ],
          [
            28.235294117647058,
            -72.11764705882354
          ],
          [
            28.588235294117645,
            -72.11764705882354
          ],
          [
            28.94117647058824,
            -72.11764705882354
          ],
          [
            29.294117647058826,
            -72.11764705882354
          ],
          [
            29.647058823529413,
            -72.11764705882354
          ],
          [
            30.0,
            -72.11764705882354
          ],
          [
            30.35294117647059,
            -72.11764705882354
          ],
          [
            30.705882352941178,
            -72.11764705882354
          ],
          [
            31.058823529411764,
            -72.11764705882354
          ],
          [
            31.41176470588235,
            -72.11764705882354
          ],
          [
            31.764705882352942,
            -72.11764705882354
          ],
          [
            32.11764705882353,
            -72.11764705882354
          ],
          [
            32.470588235294116,
            -72.11764705882354
          ],
          [
            32.8235294117647,
            -72.11764705882354
          ],
          [
            33.1764705882353,
            -72.11764705882354
          ],
          [
            33.529411764705884,
            -72.11764705882354
          ],
          [
            33.88235294117647,
            -72.11764705882354
          ],
          [
            34.23529411764706,
            -72.11764705882354
          ],
          [
            34.58823529411765,
            -72.11764705882354
          ],
          [
            34.94117647058824,
            -72.11764705882354
          ],
          [
            35.294117647058826,
            -72.11764705882354
          ],
          [
            35.64705882352941,
            -72.11764705882354
          ],
          [
            36.0,
            -72.11764705882354
          ],
          [
            36.35294117647059,
            -72.11764705882354
          ],
          [
            36.705882352941174,
            -72.11764705882354
          ],
          [
            37.05882352941176,
            -72.11764705882354
          ],
          [
            37.411764705882355,
            -72.11764705882354
          ],
          [
            37.76470588235294,
            -72.11764705882354
          ],
          [
            38.11764705882353,
            -72.11764705882354
          ],
          [
            38.470588235294116,
            -72.11764705882354
          ],
          [
            38.82352941176471,
            -72.11764705882354
          ],
          [
            39.1764705882353,
            -72.11764705882354
          ],
          [
            39.529411764705884,
            -72.11764705882354
          ],
          [
            39.88235294117647,
            -72.11764705882354
          ],
          [
            40.23529411764706,
            -72.11764705882354
          ],
          [
            40.588235294117645,
            -72.11764705882354
          ],
          [
            40.94117647058823,
            -72.11764705882354
          ],
          [
            41.29411764705882,
            -72.11764705882354
          ],
          [
            41.64705882352941,
            -72.11764705882354
          ],
          [
            42.0,
            -72.11764705882354
          ],
          [
            42.35294117647059,
            -72.11764705882354
          ],
          [
            42.705882352941174,
            -72.11764705882354
          ],
          [
            43.05882352941177,
            -72.11764705882354
          ],
          [
            43.411764705882355,
            -72.11764705882354
          ],
          [
            43.76470588235294,
            -72.11764705882354
          ],
          [
            44.11764705882353,
            -72.11764705882354
          ],
          [
            44.470588235294116,
            -72.11764705882354
          ],
          [
            44.82352941176471,
            -72.11764705882354
          ],
          [
            45.17647058823529,
            -72.11764705882354
          ],
          [
            45.529411764705884,
            -72.11764705882354
          ],
          [
            45.882352941176464,
            -72.11764705882354
          ],
          [
            46.23529411764706,
            -72.11764705882354
          ],
          [
            46.58823529411765,
            -72.11764705882354
          ],
          [
            46.94117647058824,
            -72.11764705882354
          ],
          [
            47.294117647058826,
            -72.11764705882354
          ],
          [
            47.64705882352941,
            -72.11764705882354
          ],
          [
            48.0,
            -72.11764705882354
          ],
          [
            48.35294117647059,
            -72.11764705882354
          ],
          [
            48.705882352941174,
            -72.11764705882354
          ],
          [
            49.05882352941176,
            -72.11764705882354
          ],
          [
            49.411764705882355,
            -72.11764705882354
          ],
          [
            49.76470588235294,
            -72.11764705882354
          ],
          [
            50.11764705882353,
            -72.11764705882354
          ],
          [
            50.470588235294116,
            -72.11764705882354
          ],
          [
            50.8235294117647,
            -72.11764705882354
          ],
          [
            51.17647058823529,
            -72.11764705882354
          ],
          [
            51.52941176470588,
            -72.11764705882354
          ],
          [
            51.882352941176464,
            -72.11764705882354
          ],
          [
            52.235294117647065,
            -72.11764705882354
          ],
          [
            52.58823529411765,
            -72.11764705882354
          ],
          [
            52.94117647058824,
            -72.11764705882354
          ],
          [
            53.294117647058826,
            -72.11764705882354
          ],
          [
            53.64705882352941,
            -72.11764705882354
          ],
          [
            54.0,
            -72.11764705882354
          ],
          [
            54.35294117647059,
            -72.11764705882354
          ],
          [
            54.705882352941174,
            -72.11764705882354
          ],
          [
            55.05882352941177,
            -72.11764705882354
          ],
          [
            55.411764705882355,
            -72.11764705882354
          ],
          [
            55.76470588235294,
            -72.11764705882354
          ],
          [
            56.11764705882353,
            -72.11764705882354
          ],
          [
            56.470588235294116,
            -72.11764705882354
          ],
          [
            56.8235294117647,
            -72.11764705882354
          ],
          [
            57.17647058823529,
            -72.11764705882354
          ],
          [
            57.52941176470588,
            -72.11764705882354
          ],
          [
            57.88235294117648,
            -72.11764705882354
          ],
          [
            58.235294117647065,
            -72.11764705882354
          ],
          [
            58.58823529411765,
            -72.11764705882354
          ],
          [
            58.94117647058824,
            -72.11764705882354
          ],
          [
            59.294117647058826,
            -72.11764705882354
          ],
          [
            59.64705882352941,
            -72.11764705882354
          ],
          [
            60.0,
            -72.11764705882354
          ],
          [
            60.35294117647059,
            -72.11764705882354
          ],
          [
            60.70588235294118,
            -72.11764705882354
          ],
          [
            61.05882352941177,
            -72.11764705882354
          ],
          [
            61.411764705882355,
            -72.11764705882354
          ],
          [
            61.76470588235294,
            -72.11764705882354
          ],
          [
            62.11764705882353,
            -72.11764705882354
          ],
          [
            62.470588235294116,
            -72.11764705882354
          ],
          [
            62.8235294117647,
            -72.11764705882354
          ],
          [
            63.17647058823529,
            -72.11764705882354
          ],
          [
            63.529411764705884,
            -72.11764705882354
          ],
          [
            63.88235294117647,
            -72.11764705882354
          ],
          [
            64.23529411764706,
            -72.11764705882354
          ],
          [
            64.58823529411765,
            -72.11764705882354
          ],
          [
            64.94117647058823,
            -72.11764705882354
          ],
          [
            65.29411764705883,
            -72.11764705882354
          ],
          [
            65.6470588235294,
            -72.11764705882354
          ],
          [
            66.0,
            -72.11764705882354
          ],
          [
            66.3529411764706,
            -72.11764705882354
          ],
          [
            66.70588235294117,
            -72.11764705882354
          ],
          [
            67.05882352941177,
            -72.11764705882354
          ],
          [
            67.41176470588235,
            -72.11764705882354
          ],
          [
            67.76470588235294,
            -72.11764705882354
          ],
          [
            68.11764705882352,
            -72.11764705882354
          ],
          [
            68.47058823529412,
            -72.0
          ],
          [
            68.8235294117647,
            -71.88235294117646
          ],
          [
            69.1764705882353,
            -71.76470588235294
          ],
          [
            69.52941176470588,
            -71.64705882352942
          ],
          [
            69.88235294117648,
            -71.52941176470588
          ],
          [
            70.23529411764706,
            -71.41176470588235
          ],
          [
            70.58823529411765,
            -71.29411764705883
          ],
          [
            70.94117647058823,
            -71.1764705882353
          ],
          [
            71.29411764705883,
            -71.05882352941177
          ],
          [
            71.6470588235294,
            -70.94117647058823
          ],
          [
            72.0,
            -70.82352941176471
          ],
          [
            72.3529411764706,
            -70.70588235294117
          ],
          [
            72.70588235294117,
            -70.58823529411765
          ],
          [
            73.05882352941177,
            -70.47058823529412
          ],
          [
            73.41176470588235,
            -70.3529411764706
          ],
          [
            73.76470588235294,
            -70.23529411764706
          ],
          [
            74.11764705882352,
            -70.11764705882354
          ],
          [
            74.47058823529412,
            -70.0
          ],
          [
            74.82352941176471,
            -69.88235294117646
          ],
          [
            75.17647058823529,
            -69.76470588235294
          ],
          [
            75.52941176470588,
            -69.64705882352942
          ],
          [
            75.88235294117646,
            -69.52941176470588
          ],
          [
            76.23529411764706,
            -69.41176470588235
          ]
        ]
      },
      "properties": {
        "route_name": "POLARIS Recommended Passage",
        "grid_resolution": "256x256",
        "transit_hours": 93.24,
        "cost_metric": 1305.35,
        "generated_at": "2026-09-14T11:05:33.606550+00:00"
      }
    }
  ]
}